{
  "type": "FeatureCollection",
  "features": [
    {
      "type": "Feature",
      "properties": {
        "norad_id": 66760,
        "name": "TRANSPORTER-15CY",
        "group": "last-30-days",
        "lat": -9.052111445954363,
        "lon": 70.00896328326492,
        "alt_km": 515.949695043957,
        "timestamp": "2025-12-23T05:02:10.749812+00:00",
        "meta_object_name": "TRANSPORTER-15CY",
        "meta_object_id": "2025-276CY",
        "meta_epoch": "2025-12-22T21:10:02.141472",
        "meta_mean_motion": 15.18189259,
        "meta_eccentricity": 0.00015979,
        "meta_inclination": 97.44,
        "meta_ra_of_asc_node": 68.4936,
        "meta_arg_of_pericenter": 107.5352,
        "meta_mean_anomaly": 252.6057,
        "meta_ephemeris_type": 0,
        "meta_classification_type": "U",
        "meta_norad_cat_id": 66760,
        "meta_element_set_no": 999,
        "meta_rev_at_epoch": 366,
        "meta_bstar": 0.0005186295,
        "meta_mean_motion_dot": 0.00010543,
        "meta_mean_motion_ddot": 0,
        "tle_line1": "1 66760U 25276CY  25356.88196923  .00010543  00000+0  51863-3 0  9992",
        "tle_line2": "2 66760  97.4400  68.4936 0001597 107.5352 252.6057 15.18189259  3663"
      },
      "geometry": {
        "type": "Point",
        "coordinates": [
          70.00896328326492,
          -9.052111445954363
        ]
      }
    },
    {
      "type": "Feature",
      "properties": {
        "norad_id": 66761,
        "name": "TRANSPORTER-15CZ",
        "group": "last-30-days",
        "lat": 4.94989173471257,
        "lon": 68.17317790486669,
        "alt_km": 513.3964598388084,
        "timestamp": "2025-12-23T05:02:10.749824+00:00",
        "meta_object_name": "TRANSPORTER-15CZ",
        "meta_object_id": "2025-276CZ",
        "meta_epoch": "2025-12-22T21:06:24.036768",
        "meta_mean_motion": 15.18469726,
        "meta_eccentricity": 0.00016072,
        "meta_inclination": 97.4399,
        "meta_ra_of_asc_node": 68.4966,
        "meta_arg_of_pericenter": 125.2421,
        "meta_mean_anomaly": 234.8964,
        "meta_ephemeris_type": 0,
        "meta_classification_type": "U",
        "meta_norad_cat_id": 66761,
        "meta_element_set_no": 999,
        "meta_rev_at_epoch": 366,
        "meta_bstar": 0.00057343557,
        "meta_mean_motion_dot": 0.0001176,
        "meta_mean_motion_ddot": 0,
        "tle_line1": "1 66761U 25276CZ  25356.87944487  .00011760  00000+0  57344-3 0  9990",
        "tle_line2": "2 66761  97.4399  68.4966 0001607 125.2421 234.8964 15.18469726  3669"
      },
      "geometry": {
        "type": "Point",
        "coordinates": [
          68.17317790486669,
          4.94989173471257
        ]
      }
    },
    {
      "type": "Feature",
      "properties": {
        "norad_id": 66762,
        "name": "HYDROGNSS-1",
        "group": "last-30-days",
        "lat": -79.46174784356658,
        "lon": 113.41911062925458,
        "alt_km": 520.6843907721914,
        "timestamp": "2025-12-23T05:02:10.749834+00:00",
        "meta_object_name": "HYDROGNSS-1",
        "meta_object_id": "2025-276DA",
        "meta_epoch": "2025-12-22T21:29:08.720448",
        "meta_mean_motion": 15.17301786,
        "meta_eccentricity": 9.746e-05,
        "meta_inclination": 97.4409,
        "meta_ra_of_asc_node": 68.4786,
        "meta_arg_of_pericenter": 266.4361,
        "meta_mean_anomaly": 93.6761,
        "meta_ephemeris_type": 0,
        "meta_classification_type": "U",
        "meta_norad_cat_id": 66762,
        "meta_element_set_no": 999,
        "meta_rev_at_epoch": 366,
        "meta_bstar": 0.00049195935,
        "meta_mean_motion_dot": 9.744e-05,
        "meta_mean_motion_ddot": 0,
        "tle_line1": "1 66762U 25276DA  25356.89523982  .00009744  00000+0  49196-3 0  9991",
        "tle_line2": "2 66762  97.4409  68.4786 0000974 266.4361  93.6761 15.17301786  3665"
      },
      "geometry": {
        "type": "Point",
        "coordinates": [
          113.41911062925458,
          -79.46174784356658
        ]
      }
    },
    {
      "type": "Feature",
      "properties": {
        "norad_id": 66763,
        "name": "HYDROGNSS-2",
        "group": "last-30-days",
        "lat": -69.97710212825113,
        "lon": 89.81492291790636,
        "alt_km": 520.2697765581943,
        "timestamp": "2025-12-23T05:02:10.749844+00:00",
        "meta_object_name": "HYDROGNSS-2",
        "meta_object_id": "2025-276DB",
        "meta_epoch": "2025-12-22T10:21:31.448736",
        "meta_mean_motion": 15.17420203,
        "meta_eccentricity": 0.00013861,
        "meta_inclination": 97.4416,
        "meta_ra_of_asc_node": 68.032,
        "meta_arg_of_pericenter": 244.5475,
        "meta_mean_anomaly": 115.5615,
        "meta_ephemeris_type": 0,
        "meta_classification_type": "U",
        "meta_norad_cat_id": 66763,
        "meta_element_set_no": 999,
        "meta_rev_at_epoch": 359,
        "meta_bstar": 0.00019983047,
        "meta_mean_motion_dot": 3.929e-05,
        "meta_mean_motion_ddot": 0,
        "tle_line1": "1 66763U 25276DB  25356.43161399  .00003929  00000+0  19983-3 0  9992",
        "tle_line2": "2 66763  97.4416  68.0320 0001386 244.5475 115.5615 15.17420203  3595"
      },
      "geometry": {
        "type": "Point",
        "coordinates": [
          89.81492291790636,
          -69.97710212825113
        ]
      }
    },
    {
      "type": "Feature",
      "properties": {
        "norad_id": 66764,
        "name": "TRANSPORTER-15DC",
        "group": "last-30-days",
        "lat": -46.61674307699362,
        "lon": 76.74984483674247,
        "alt_km": 520.2576779464935,
        "timestamp": "2025-12-23T05:02:10.749856+00:00",
        "meta_object_name": "TRANSPORTER-15DC",
        "meta_object_id": "2025-276DC",
        "meta_epoch": "2025-12-22T21:19:55.035552",
        "meta_mean_motion": 15.17695871,
        "meta_eccentricity": 0.00019967,
        "meta_inclination": 97.4408,
        "meta_ra_of_asc_node": 68.4858,
        "meta_arg_of_pericenter": 196.8127,
        "meta_mean_anomaly": 163.3041,
        "meta_ephemeris_type": 0,
        "meta_classification_type": "U",
        "meta_norad_cat_id": 66764,
        "meta_element_set_no": 999,
        "meta_rev_at_epoch": 366,
        "meta_bstar": 0.00046864301,
        "meta_mean_motion_dot": 9.385e-05,
        "meta_mean_motion_ddot": 0,
        "tle_line1": "1 66764U 25276DC  25356.88883143  .00009385  00000+0  46864-3 0  9990",
        "tle_line2": "2 66764  97.4408  68.4858 0001996 196.8127 163.3041 15.17695871  3664"
      },
      "geometry": {
        "type": "Point",
        "coordinates": [
          76.74984483674247,
          -46.61674307699362
        ]
      }
    },
    {
      "type": "Feature",
      "properties": {
        "norad_id": 66765,
        "name": "TRANSPORTER-15DD",
        "group": "last-30-days",
        "lat": 23.399930930886086,
        "lon": 65.5938831468398,
        "alt_km": 509.3657308996262,
        "timestamp": "2025-12-23T05:02:10.749868+00:00",
        "meta_object_name": "TRANSPORTER-15DD",
        "meta_object_id": "2025-276DD",
        "meta_epoch": "2025-12-22T22:36:27.230976",
        "meta_mean_motion": 15.18727084,
        "meta_eccentricity": 0.00018989,
        "meta_inclination": 97.4424,
        "meta_ra_of_asc_node": 68.573,
        "meta_arg_of_pericenter": 118.5255,
        "meta_mean_anomaly": 241.617,
        "meta_ephemeris_type": 0,
        "meta_classification_type": "U",
        "meta_norad_cat_id": 66765,
        "meta_element_set_no": 999,
        "meta_rev_at_epoch": 367,
        "meta_bstar": 0.00067820872,
        "meta_mean_motion_dot": 0.00014029,
        "meta_mean_motion_ddot": 0,
        "tle_line1": "1 66765U 25276DD  25356.94198184  .00014029  00000+0  67821-3 0  9999",
        "tle_line2": "2 66765  97.4424  68.5730 0001898 118.5255 241.6170 15.18727084  3674"
      },
      "geometry": {
        "type": "Point",
        "coordinates": [
          65.5938831468398,
          23.399930930886086
        ]
      }
    },
    {
      "type": "Feature",
      "properties": {
        "norad_id": 66766,
        "name": "TRANSPORTER-15DE",
        "group": "last-30-days",
        "lat": 8.15963911901356,
        "lon": 67.73916646367825,
        "alt_km": 512.2819444380866,
        "timestamp": "2025-12-23T05:02:10.749878+00:00",
        "meta_object_name": "TRANSPORTER-15DE",
        "meta_object_id": "2025-276DE",
        "meta_epoch": "2025-12-22T22:40:25.535136",
        "meta_mean_motion": 15.18410722,
        "meta_eccentricity": 0.00020225,
        "meta_inclination": 97.4364,
        "meta_ra_of_asc_node": 68.5516,
        "meta_arg_of_pericenter": 86.6783,
        "meta_mean_anomaly": 273.4682,
        "meta_ephemeris_type": 0,
        "meta_classification_type": "U",
        "meta_norad_cat_id": 66766,
        "meta_element_set_no": 999,
        "meta_rev_at_epoch": 367,
        "meta_bstar": 0.00055796851,
        "meta_mean_motion_dot": 0.00011422,
        "meta_mean_motion_ddot": 0,
        "tle_line1": "1 66766U 25276DE  25356.94473999  .00011422  00000+0  55797-3 0  9993",
        "tle_line2": "2 66766  97.4364  68.5516 0002022  86.6783 273.4682 15.18410722  3670"
      },
      "geometry": {
        "type": "Point",
        "coordinates": [
          67.73916646367825,
          8.15963911901356
        ]
      }
    }
  ]
}